start=new Date('2022-04-16T00:00:00.000Z').valueOf();
sats=[{"RA_OF_ASC_NODE":"34.9403","FILE":"3403095","TLE_LINE2":"2 48642  53.0562  34.9403 0001434  67.8656 292.2486 15.06401847 49057","MEAN_ANOMALY":"292.2486","BSTAR":"0.00005580500000","TLE_LINE1":"1 48642U 21044E   22105.52755037  .00000550  00000-0  55805-4 0  9996","OBJECT_TYPE":"PAYLOAD","GP_ID":"201307562","MEAN_MOTION":"15.06401847","NORAD_CAT_ID":"48642","OBJECT_ID":"2021-044E","ELEMENT_SET_NO":"999","CENTER_NAME":"EARTH","MEAN_ELEMENT_THEORY":"SGP4","COUNTRY_CODE":"US","REV_AT_EPOCH":"4905","PERIAPSIS":"546.215","EPHEMERIS_TYPE":"0","LAUNCH_DATE":"2021-05-26","CLASSIFICATION_TYPE":"U","APOAPSIS":"548.201","INCLINATION":"53.0562","EPOCH":"2022-04-15T12:39:40.351968","ECCENTRICITY":"0.00014340","ARG_OF_PERICENTER":"67.8656","SITE":"AFETR","PERIOD":"95.592","OBJECT_NAME":"STARLINK-2646","SEMIMAJOR_AXIS":"6925.343","DECAY_DATE":null,"RCS_SIZE":"LARGE","TIME_SYSTEM":"UTC","REF_FRAME":"TEME","MEAN_MOTION_DDOT":"0.0000000000000","MEAN_MOTION_DOT":"0.00000550"},{"PERIAPSIS":"546.198","EPHEMERIS_TYPE":"0","LAUNCH_DATE":"2021-05-26","REV_AT_EPOCH":"4909","MEAN_ELEMENT_THEORY":"SGP4","COUNTRY_CODE":"US","MEAN_MOTION":"15.06407419","NORAD_CAT_ID":"48643","OBJECT_TYPE":"PAYLOAD","GP_ID":"201341723","CENTER_NAME":"EARTH","ELEMENT_SET_NO":"999","OBJECT_ID":"2021-044F","TLE_LINE1":"1 48643U 21044F   22105.77544860  .00000804  00000-0  72833-4 0  9996","MEAN_ANOMALY":"279.1384","BSTAR":"0.00007283300000","FILE":"3403567","TLE_LINE2":"2 48643  53.0575  33.8171 0001434  80.9767 279.1384 15.06407419 49097","RA_OF_ASC_NODE":"33.8171","MEAN_MOTION_DOT":"0.00000804","MEAN_MOTION_DDOT":"0.0000000000000","DECAY_DATE":null,"RCS_SIZE":"LARGE","REF_FRAME":"TEME","TIME_SYSTEM":"UTC","SEMIMAJOR_AXIS":"6925.326","SITE":"AFETR","OBJECT_NAME":"STARLINK-2704","PERIOD":"95.592","ECCENTRICITY":"0.00014340","ARG_OF_PERICENTER":"80.9767","EPOCH":"2022-04-15T18:36:38.759040","INCLINATION":"53.0575","CLASSIFICATION_TYPE":"U","APOAPSIS":"548.184"},{"INCLINATION":"53.0544","CLASSIFICATION_TYPE":"U","APOAPSIS":"548.214","ECCENTRICITY":"0.00015850","ARG_OF_PERICENTER":"59.8637","EPOCH":"2022-04-15T21:42:24.626016","SEMIMAJOR_AXIS":"6925.252","PERIOD":"95.590","OBJECT_NAME":"STARLINK-2695","SITE":"AFETR","MEAN_MOTION_DDOT":"0.0000000000000","MEAN_MOTION_DOT":"0.00008061","TIME_SYSTEM":"UTC","REF_FRAME":"TEME","RCS_SIZE":"LARGE","DECAY_DATE":null,"RA_OF_ASC_NODE":"33.2524","BSTAR":"0.00055894000000","MEAN_ANOMALY":"300.2509","TLE_LINE2":"2 48644  53.0544  33.2524 0001585  59.8637 300.2509 15.06431605 49110","FILE":"3403567","OBJECT_ID":"2021-044G","ELEMENT_SET_NO":"999","CENTER_NAME":"EARTH","GP_ID":"201342475","OBJECT_TYPE":"PAYLOAD","NORAD_CAT_ID":"48644","MEAN_MOTION":"15.06431605","TLE_LINE1":"1 48644U 21044G   22105.90445169  .00008061  00000-0  55894-3 0  9994","LAUNCH_DATE":"2021-05-26","EPHEMERIS_TYPE":"0","PERIAPSIS":"546.019","MEAN_ELEMENT_THEORY":"SGP4","COUNTRY_CODE":"US","REV_AT_EPOCH":"4911"},{"GP_ID":"201342226","OBJECT_TYPE":"PAYLOAD","NORAD_CAT_ID":"48645","MEAN_MOTION":"15.06405684","OBJECT_ID":"2021-044H","ELEMENT_SET_NO":"999","CENTER_NAME":"EARTH","TLE_LINE1":"1 48645U 21044H   22105.90076490 -.00000543  00000-0 -17568-4 0  9998","PERIAPSIS":"546.195","EPHEMERIS_TYPE":"0","LAUNCH_DATE":"2021-05-26","MEAN_ELEMENT_THEORY":"SGP4","COUNTRY_CODE":"US","REV_AT_EPOCH":"4911","RA_OF_ASC_NODE":"33.2616","BSTAR":"-0.00001756800000","MEAN_ANOMALY":"291.1641","FILE":"3403567","TLE_LINE2":"2 48645  53.0554  33.2616 0001446  68.9503 291.1641 15.06405684 49116","SEMIMAJOR_AXIS":"6925.331","SITE":"AFETR","PERIOD":"95.592","OBJECT_NAME":"STARLINK-2733","MEAN_MOTION_DOT":"-0.00000543","MEAN_MOTION_DDOT":"0.0000000000000","RCS_SIZE":"LARGE","DECAY_DATE":null,"TIME_SYSTEM":"UTC","REF_FRAME":"TEME","INCLINATION":"53.0554","CLASSIFICATION_TYPE":"U","APOAPSIS":"548.198","ECCENTRICITY":"0.00014460","ARG_OF_PERICENTER":"68.9503","EPOCH":"2022-04-15T21:37:06.087360"},{"MEAN_MOTION_DOT":"-0.00000104","MEAN_MOTION_DDOT":"0.0000000000000","DECAY_DATE":null,"RCS_SIZE":"LARGE","REF_FRAME":"TEME","TIME_SYSTEM":"UTC","SEMIMAJOR_AXIS":"6925.337","SITE":"AFETR","OBJECT_NAME":"STARLINK-2732","PERIOD":"95.592","ECCENTRICITY":"0.00013140","ARG_OF_PERICENTER":"72.8384","EPOCH":"2022-04-15T11:58:34.727520","INCLINATION":"53.0564","APOAPSIS":"548.112","CLASSIFICATION_TYPE":"U","PERIAPSIS":"546.292","EPHEMERIS_TYPE":"0","LAUNCH_DATE":"2021-05-26","REV_AT_EPOCH":"4905","COUNTRY_CODE":"US","MEAN_ELEMENT_THEORY":"SGP4","MEAN_MOTION":"15.06403805","NORAD_CAT_ID":"48646","OBJECT_TYPE":"PAYLOAD","GP_ID":"201307063","ELEMENT_SET_NO":"999","CENTER_NAME":"EARTH","OBJECT_ID":"2021-044J","TLE_LINE1":"1 48646U 21044J   22105.49901305 -.00000104  00000-0  11884-4 0  9992","BSTAR":"0.00001188400000","MEAN_ANOMALY":"287.2749","FILE":"3403095","TLE_LINE2":"2 48646  53.0564  35.0468 0001314  72.8384 287.2749 15.06403805 49059","RA_OF_ASC_NODE":"35.0468"},{"PERIAPSIS":"545.979","LAUNCH_DATE":"2021-05-26","EPHEMERIS_TYPE":"0","MEAN_ELEMENT_THEORY":"SGP4","COUNTRY_CODE":"US","REV_AT_EPOCH":"4911","OBJECT_TYPE":"PAYLOAD","GP_ID":"201341224","NORAD_CAT_ID":"48647","MEAN_MOTION":"15.06447991","OBJECT_ID":"2021-044K","CENTER_NAME":"EARTH","ELEMENT_SET_NO":"999","TLE_LINE1":"1 48647U 21044K   22105.89337033  .00011234  00000-0  77089-3 0  9991","BSTAR":"0.00077089000000","MEAN_ANOMALY":"291.2103","FILE":"3403567","TLE_LINE2":"2 48647  53.0547  33.2999 0001571  68.9054 291.2103 15.06447991 49115","RA_OF_ASC_NODE":"33.2999","MEAN_MOTION_DDOT":"0.0000000000000","MEAN_MOTION_DOT":"0.00011234","DECAY_DATE":null,"RCS_SIZE":"LARGE","TIME_SYSTEM":"UTC","REF_FRAME":"TEME","SEMIMAJOR_AXIS":"6925.201","SITE":"AFETR","PERIOD":"95.589","OBJECT_NAME":"STARLINK-2691","ARG_OF_PERICENTER":"68.9054","ECCENTRICITY":"0.00015710","EPOCH":"2022-04-15T21:26:27.196512","INCLINATION":"53.0547","CLASSIFICATION_TYPE":"U","APOAPSIS":"548.154"},{"RA_OF_ASC_NODE":"33.6004","TLE_LINE2":"2 48648  53.0572  33.6004 0001365  77.4686 282.6456 15.06408542 49105","FILE":"3403567","MEAN_ANOMALY":"282.6456","BSTAR":"-0.00000308750000","TLE_LINE1":"1 48648U 21044L   22105.82610966 -.00000327  00000-0 -30875-5 0  9991","ELEMENT_SET_NO":"999","CENTER_NAME":"EARTH","OBJECT_ID":"2021-044L","NORAD_CAT_ID":"48648","MEAN_MOTION":"15.06408542","GP_ID":"201341976","OBJECT_TYPE":"PAYLOAD","REV_AT_EPOCH":"4910","MEAN_ELEMENT_THEORY":"SGP4","COUNTRY_CODE":"US","LAUNCH_DATE":"2021-05-26","EPHEMERIS_TYPE":"0","PERIAPSIS":"546.242","APOAPSIS":"548.133","CLASSIFICATION_TYPE":"U","INCLINATION":"53.0572","EPOCH":"2022-04-15T19:49:35.874624","ECCENTRICITY":"0.00013650","ARG_OF_PERICENTER":"77.4686","OBJECT_NAME":"STARLINK-2521","PERIOD":"95.592","SITE":"AFETR","SEMIMAJOR_AXIS":"6925.322","REF_FRAME":"TEME","TIME_SYSTEM":"UTC","RCS_SIZE":"LARGE","DECAY_DATE":null,"MEAN_MOTION_DOT":"-0.00000327","MEAN_MOTION_DDOT":"0.0000000000000"},{"SITE":"AFETR","PERIOD":"95.592","OBJECT_NAME":"STARLINK-2673","SEMIMAJOR_AXIS":"6925.327","DECAY_DATE":null,"RCS_SIZE":"LARGE","TIME_SYSTEM":"UTC","REF_FRAME":"TEME","MEAN_MOTION_DOT":"0.00000552","MEAN_MOTION_DDOT":"0.0000000000000","CLASSIFICATION_TYPE":"U","APOAPSIS":"548.421","INCLINATION":"53.0565","EPOCH":"2022-04-15T21:21:11.239488","ARG_OF_PERICENTER":"55.7114","ECCENTRICITY":"0.00017750","TLE_LINE1":"1 48649U 21044M   22105.88971342  .00000552  00000-0  55957-4 0  9991","GP_ID":"201342726","OBJECT_TYPE":"PAYLOAD","MEAN_MOTION":"15.06406964","NORAD_CAT_ID":"48649","OBJECT_ID":"2021-044M","ELEMENT_SET_NO":"999","CENTER_NAME":"EARTH","MEAN_ELEMENT_THEORY":"SGP4","COUNTRY_CODE":"US","REV_AT_EPOCH":"4910","PERIAPSIS":"545.963","EPHEMERIS_TYPE":"0","LAUNCH_DATE":"2021-05-26","RA_OF_ASC_NODE":"33.2989","FILE":"3403567","TLE_LINE2":"2 48649  53.0565  33.2989 0001775  55.7114 304.4043 15.06406964 49107","BSTAR":"0.00005595700000","MEAN_ANOMALY":"304.4043"},{"RA_OF_ASC_NODE":"33.3271","MEAN_ANOMALY":"272.5869","BSTAR":"0.00004359900000","FILE":"3403567","TLE_LINE2":"2 48650  53.0573  33.3271 0001382  87.5278 272.5869 15.06403059 49104","NORAD_CAT_ID":"48650","MEAN_MOTION":"15.06403059","OBJECT_TYPE":"PAYLOAD","GP_ID":"201341474","ELEMENT_SET_NO":"999","CENTER_NAME":"EARTH","OBJECT_ID":"2021-044N","TLE_LINE1":"1 48650U 21044N   22105.88603094  .00000368  00000-0  43599-4 0  9993","PERIAPSIS":"546.247","EPHEMERIS_TYPE":"0","LAUNCH_DATE":"2021-05-26","REV_AT_EPOCH":"4910","MEAN_ELEMENT_THEORY":"SGP4","COUNTRY_CODE":"US","INCLINATION":"53.0573","APOAPSIS":"548.161","CLASSIFICATION_TYPE":"U","ECCENTRICITY":"0.00013820","ARG_OF_PERICENTER":"87.5278","EPOCH":"2022-04-15T21:15:53.073216","SEMIMAJOR_AXIS":"6925.339","SITE":"AFETR","OBJECT_NAME":"STARLINK-2672","PERIOD":"95.592","MEAN_MOTION_DOT":"0.00000368","MEAN_MOTION_DDOT":"0.0000000000000","DECAY_DATE":null,"RCS_SIZE":"LARGE","REF_FRAME":"TEME","TIME_SYSTEM":"UTC"},{"EPOCH":"2022-04-15T22:46:06.704544","ECCENTRICITY":"0.00013420","ARG_OF_PERICENTER":"71.6949","CLASSIFICATION_TYPE":"U","APOAPSIS":"548.130","INCLINATION":"53.0570","DECAY_DATE":null,"RCS_SIZE":"LARGE","REF_FRAME":"TEME","TIME_SYSTEM":"UTC","MEAN_MOTION_DDOT":"0.0000000000000","MEAN_MOTION_DOT":"0.00000023","SITE":"AFETR","OBJECT_NAME":"STARLINK-2731","PERIOD":"95.592","SEMIMAJOR_AXIS":"6925.336","FILE":"3403567","TLE_LINE2":"2 48651  53.0570  33.0471 0001342  71.6949 288.4185 15.06404112 49115","BSTAR":"0.00002042400000","MEAN_ANOMALY":"288.4185","RA_OF_ASC_NODE":"33.0471","REV_AT_EPOCH":"4911","MEAN_ELEMENT_THEORY":"SGP4","COUNTRY_CODE":"US","PERIAPSIS":"546.272","LAUNCH_DATE":"2021-05-26","EPHEMERIS_TYPE":"0","TLE_LINE1":"1 48651U 21044P   22105.94868871  .00000023  00000-0  20424-4 0  9997","NORAD_CAT_ID":"48651","MEAN_MOTION":"15.06404112","OBJECT_TYPE":"PAYLOAD","GP_ID":"201341724","ELEMENT_SET_NO":"999","CENTER_NAME":"EARTH","OBJECT_ID":"2021-044P"}];
